{"type": "FeatureCollection", "features": [ {"type": "Feature", "properties": {"norad_id": 58662, "name": "TIANMU-1 21", "group": "weather", "lat": 12.340269006808702, "lon": -86.33698523865141, "alt_km": 475.7827581450456, "timestamp": "2025-12-04T15:47:53.739705+00:00", "meta": {"OBJECT_NAME": "TIANMU-1 21", "OBJECT_ID": "2023-208C", "EPOCH": "2025-12-04T07:13:38.051904", "MEAN_MOTION": 15.31272254, "ECCENTRICITY": 0.00059556, "INCLINATION": 97.4381, "RA_OF_ASC_NODE": 91.667, "ARG_OF_PERICENTER": 295.7268, "MEAN_ANOMALY": 64.3358, "EPHEMERIS_TYPE": 0, "CLASSIFICATION_TYPE": "U", "NORAD_CAT_ID": 58662, "ELEMENT_SET_NO": 999, "REV_AT_EPOCH": 10770, "BSTAR": 0.00074207087, "MEAN_MOTION_DOT": 0.00022388, "MEAN_MOTION_DDOT": 0}, "tle": {"line1": "1 58662U 23208C   25338.30113486  .00022388  00000+0  74207-3 0  9994", "line2": "2 58662  97.4381  91.6670 0005955 295.7268  64.3358 15.31272254107709"}}, "geometry": {"type": "Point", "coordinates": [-86.33698523865141, 12.340269006808702]}}, {"type": "Feature", "properties": {"norad_id": 58663, "name": "TIANMU-1 22", "group": "weather", "lat": -23.493951819484494, "lon": -93.48015447275753, "alt_km": 490.2830046281115, "timestamp": "2025-12-04T15:47:53.739715+00:00", "meta": {"OBJECT_NAME": "TIANMU-1 22", "OBJECT_ID": "2023-208D", "EPOCH": "2025-12-04T07:02:52.137600", "MEAN_MOTION": 15.27381982, "ECCENTRICITY": 0.00030136, "INCLINATION": 97.4389, "RA_OF_ASC_NODE": 89.4122, "ARG_OF_PERICENTER": 327.3005, "MEAN_ANOMALY": 32.8047, "EPHEMERIS_TYPE": 0, "CLASSIFICATION_TYPE": "U", "NORAD_CAT_ID": 58663, "ELEMENT_SET_NO": 999, "REV_AT_EPOCH": 10754, "BSTAR": 0.00068952189, "MEAN_MOTION_DOT": 0.00018439, "MEAN_MOTION_DDOT": 0}, "tle": {"line1": "1 58663U 23208D   25338.29365900  .00018439  00000+0  68952-3 0  9995", "line2": "2 58663  97.4389  89.4122 0003013 327.3005  32.8047 15.27381982107540"}}, "geometry": {"type": "Point", "coordinates": [-93.48015447275753, -23.493951819484494]}}, {"type": "Feature", "properties": {"norad_id": 58700, "name": "TIANMU-1 15", "group": "weather", "lat": 56.56744177950688, "lon": 148.70518047151012, "alt_km": 486.60244090670585, "timestamp": "2025-12-04T15:47:53.739725+00:00", "meta": {"OBJECT_NAME": "TIANMU-1 15", "OBJECT_ID": "2024-004A", "EPOCH": "2025-12-04T07:40:17.230368", "MEAN_MOTION": 15.24504673, "ECCENTRICITY": 0.00057175, "INCLINATION": 97.4624, "RA_OF_ASC_NODE": 159.8197, "ARG_OF_PERICENTER": 332.3922, "MEAN_ANOMALY": 27.7011, "EPHEMERIS_TYPE": 0, "CLASSIFICATION_TYPE": "U", "NORAD_CAT_ID": 58700, "ELEMENT_SET_NO": 999, "REV_AT_EPOCH": 10606, "BSTAR": 0.00061613065, "MEAN_MOTION_DOT": 0.000151, "MEAN_MOTION_DDOT": 0}, "tle": {"line1": "1 58700U 24004A   25338.31964387  .00015100  00000+0  61613-3 0  9998", "line2": "2 58700  97.4624 159.8197 0005717 332.3922  27.7011 15.24504673106066"}}, "geometry": {"type": "Point", "coordinates": [148.70518047151012, 56.56744177950688]}}, {"type": "Feature", "properties": {"norad_id": 58701, "name": "TIANMU-1 16", "group": "weather", "lat": 33.253577810575905, "lon": -15.517566400656001, "alt_km": 494.52538985002593, "timestamp": "2025-12-04T15:47:53.739735+00:00", "meta": {"OBJECT_NAME": "TIANMU-1 16", "OBJECT_ID": "2024-004B", "EPOCH": "2025-12-04T04:07:45.875136", "MEAN_MOTION": 15.2424919, "ECCENTRICITY": 0.00050435, "INCLINATION": 97.4575, "RA_OF_ASC_NODE": 159.0714, "ARG_OF_PERICENTER": 331.4441, "MEAN_ANOMALY": 28.6519, "EPHEMERIS_TYPE": 0, "CLASSIFICATION_TYPE": "U", "NORAD_CAT_ID": 58701, "ELEMENT_SET_NO": 999, "REV_AT_EPOCH": 10604, "BSTAR": 8.2071488e-05, "MEAN_MOTION_DOT": 1.931e-05, "MEAN_MOTION_DDOT": 0}, "tle": {"line1": "1 58701U 24004B   25338.17205874  .00001931  00000+0  82071-4 0  9991", "line2": "2 58701  97.4575 159.0714 0005043 331.4441  28.6519 15.24249190106048"}}, "geometry": {"type": "Point", "coordinates": [-15.517566400656001, 33.253577810575905]}}, {"type": "Feature", "properties": {"norad_id": 58702, "name": "TIANMU-1 17", "group": "weather", "lat": -49.00320607017148, "lon": -28.70931211410452, "alt_km": 500.51772274260657, "timestamp": "2025-12-04T15:47:53.739748+00:00", "meta": {"OBJECT_NAME": "TIANMU-1 17", "OBJECT_ID": "2024-004C", "EPOCH": "2025-12-04T08:29:32.028288", "MEAN_MOTION": 15.24303656, "ECCENTRICITY": 0.00042317, "INCLINATION": 97.4596, "RA_OF_ASC_NODE": 159.6579, "ARG_OF_PERICENTER": 335.4727, "MEAN_ANOMALY": 24.6309, "EPHEMERIS_TYPE": 0, "CLASSIFICATION_TYPE": "U", "NORAD_CAT_ID": 58702, "ELEMENT_SET_NO": 999, "REV_AT_EPOCH": 10606, "BSTAR": 0.00059623821, "MEAN_MOTION_DOT": 0.00014519, "MEAN_MOTION_DDOT": 0}, "tle": {"line1": "1 58702U 24004C   25338.35384292  .00014519  00000+0  59624-3 0  9997", "line2": "2 58702  97.4596 159.6579 0004231 335.4727  24.6309 15.24303656106069"}}, "geometry": {"type": "Point", "coordinates": [-28.70931211410452, -49.00320607017148]}}, {"type": "Feature", "properties": {"norad_id": 58703, "name": "TIANMU-1 18", "group": "weather", "lat": -38.37110712120253, "lon": 166.11052957275697, "alt_km": 496.9675984494379, "timestamp": "2025-12-04T15:47:53.739758+00:00", "meta": {"OBJECT_NAME": "TIANMU-1 18", "OBJECT_ID": "2024-004D", "EPOCH": "2025-12-04T08:05:25.257696", "MEAN_MOTION": 15.24294434, "ECCENTRICITY": 0.00036192, "INCLINATION": 97.4613, "RA_OF_ASC_NODE": 159.8347, "ARG_OF_PERICENTER": 336.377, "MEAN_ANOMALY": 23.73, "EPHEMERIS_TYPE": 0, "CLASSIFICATION_TYPE": "U", "NORAD_CAT_ID": 58703, "ELEMENT_SET_NO": 999, "REV_AT_EPOCH": 10606, "BSTAR": 0.00060847584, "MEAN_MOTION_DOT": 0.00014814, "MEAN_MOTION_DDOT": 0}, "tle": {"line1": "1 58703U 24004D   25338.33709789  .00014814  00000+0  60848-3 0  9996", "line2": "2 58703  97.4613 159.8347 0003619 336.3770  23.7300 15.24294434106066"}}, "geometry": {"type": "Point", "coordinates": [166.11052957275697, -38.37110712120253]}}, {"type": "Feature", "properties": {"norad_id": 58990, "name": "INSAT-3DS", "group": "weather", "lat": 0.03427346035801698, "lon": 32.773142421645936, "alt_km": 35792.05157615255, "timestamp": "2025-12-04T15:47:53.739772+00:00", "meta": {"OBJECT_NAME": "INSAT-3DS", "OBJECT_ID": "2024-033A", "EPOCH": "2025-12-04T01:49:38.770752", "MEAN_MOTION": 1.00268791, "ECCENTRICITY": 0.00017676, "INCLINATION": 0.0127, "RA_OF_ASC_NODE": 334.3942, "ARG_OF_PERICENTER": 285.4256, "MEAN_ANOMALY": 282.8293, "EPHEMERIS_TYPE": 0, "CLASSIFICATION_TYPE": "U", "NORAD_CAT_ID": 58990, "ELEMENT_SET_NO": 999, "REV_AT_EPOCH": 4511, "BSTAR": 0, "MEAN_MOTION_DOT": 0, "MEAN_MOTION_DDOT": 0}, "tle": {"line1": "1 58990U 24033A   25338.07614318  .00000000  00000+0  00000+0 0  9992", "line2": "2 58990   0.0127 334.3942 0001767 285.4256 282.8293  1.00268791 45113"}}, "geometry": {"type": "Point", "coordinates": [32.773142421645936, 0.03427346035801698]}}, {"type": "Feature", "properties": {"norad_id": 59051, "name": "METEOR-M2 4", "group": "weather", "lat": -37.67972122101624, "lon": 108.92234780167365, "alt_km": 828.7557440033261, "timestamp": "2025-12-04T15:47:53.739783+00:00", "meta": {"OBJECT_NAME": "METEOR-M2 4", "OBJECT_ID": "2024-039A", "EPOCH": "2025-12-04T08:01:23.133792", "MEAN_MOTION": 14.22399275, "ECCENTRICITY": 0.00074929, "INCLINATION": 98.6754, "RA_OF_ASC_NODE": 295.3755, "ARG_OF_PERICENTER": 21.979, "MEAN_ANOMALY": 338.1708, "EPHEMERIS_TYPE": 0, "CLASSIFICATION_TYPE": "U", "NORAD_CAT_ID": 59051, "ELEMENT_SET_NO": 999, "REV_AT_EPOCH": 9156, "BSTAR": 5.9541393e-05, "MEAN_MOTION_DOT": 8.9e-07, "MEAN_MOTION_DDOT": 0}, "tle": {"line1": "1 59051U 24039A   25338.33429553  .00000089  00000+0  59541-4 0  9997", "line2": "2 59051  98.6754 295.3755 0007492  21.9790 338.1708 14.22399275 91562"}}, "geometry": {"type": "Point", "coordinates": [108.92234780167365, -37.67972122101624]}}, {"type": "Feature", "properties": {"norad_id": 60133, "name": "GOES 19", "group": "weather", "lat": -0.00042896175570802426, "lon": -124.51329958719359, "alt_km": 35783.73155918654, "timestamp": "2025-12-04T15:47:53.739794+00:00", "meta": {"OBJECT_NAME": "GOES 19", "OBJECT_ID": "2024-119A", "EPOCH": "2025-12-04T06:31:12.588672", "MEAN_MOTION": 1.00270633, "ECCENTRICITY": 0.0001386, "INCLINATION": 0.0086, "RA_OF_ASC_NODE": 73.4081, "ARG_OF_PERICENTER": 224.7152, "MEAN_ANOMALY": 157.8472, "EPHEMERIS_TYPE": 0, "CLASSIFICATION_TYPE": "U", "NORAD_CAT_ID": 60133, "ELEMENT_SET_NO": 999, "REV_AT_EPOCH": 501, "BSTAR": 0, "MEAN_MOTION_DOT": -2.33e-06, "MEAN_MOTION_DDOT": 0}, "tle": {"line1": "1 60133U 24119A   25338.27167348 -.00000233  00000+0  00000+0 0  9996", "line2": "2 60133   0.0086  73.4081 0001386 224.7152 157.8472  1.00270633  5015"}}, "geometry": {"type": "Point", "coordinates": [-124.51329958719359, -0.00042896175570802426]}}, {"type": "Feature", "properties": {"norad_id": 65815, "name": "FENGYUN 3H", "group": "weather", "lat": 10.16283348700869, "lon": 99.98951115823535, "alt_km": 827.2492598106137, "timestamp": "2025-12-04T15:47:53.739805+00:00", "meta": {"OBJECT_NAME": "FENGYUN 3H", "OBJECT_ID": "2025-219A", "EPOCH": "2025-12-04T06:32:45.752928", "MEAN_MOTION": 14.19901033, "ECCENTRICITY": 6.258e-05, "INCLINATION": 98.6572, "RA_OF_ASC_NODE": 278.0475, "ARG_OF_PERICENTER": 72.872, "MEAN_ANOMALY": 287.2525, "EPHEMERIS_TYPE": 0, "CLASSIFICATION_TYPE": "U", "NORAD_CAT_ID": 65815, "ELEMENT_SET_NO": 999, "REV_AT_EPOCH": 972, "BSTAR": 0.00011554288, "MEAN_MOTION_DOT": 2.02e-06, "MEAN_MOTION_DDOT": 0}, "tle": {"line1": "1 65815U 25219A   25338.27275177  .00000202  00000+0  11554-3 0  9995", "line2": "2 65815  98.6572 278.0475 0000625  72.8720 287.2525 14.19901033  9726"}}, "geometry": {"type": "Point", "coordinates": [99.98951115823535, 10.16283348700869]}}]}